MEASAT-3B               
1 40147U 14054B   20122.40743707 -.00000246  00000-0  00000+0 0  9991
2 40147   0.0416  64.8097 0002574 319.4247  73.7489  1.00270404 20739
LUCH (OLYMP)            
1 40258U 14058A   20121.82330587  .00000048  00000-0  00000-0 0  9991
2 40258   0.0341  39.2856 0002790 312.5483 181.8050  0.99853062 20496
HIMAWARI-8              
1 40267U 14060A   20121.84720247 -.00000279  00000-0  00000-0 0  9999
2 40267   0.0394  94.5367 0000578 295.3063 275.0760  1.00272396 20312
IRNSS-1C                
1 40269U 14061A   20121.70698455 -.00000165  00000-0  00000-0 0  9996
2 40269   1.8749 180.6538 0017586   9.4903   6.5549  1.00275257 20241
INTELSAT 30 (IS-30)     
1 40271U 14062A   20121.94368536 -.00000154  00000-0  00000+0 0  9997
2 40271   0.0145 257.1031 0001450 187.0446  19.8589  1.00270147 20324
ARSAT 1                 
1 40272U 14062B   20122.41129288 -.00000264  00000-0  00000+0 0  9992
2 40272   0.0193 164.8633 0001395 224.1172 267.0685  1.00271385 20449
EXPRESS-AM6             
1 40277U 14064A   20122.04505346  .00000094  00000-0  00000+0 0  9991
2 40277   0.0239 287.3120 0000371 177.6554 183.6645  1.00272182 20227
GSAT-16                 
1 40332U 14078A   20121.83010424  .00000081  00000-0  00000-0 0  9999
2 40332   0.0527 268.2946 0006868 164.4364 140.4096  1.00272078 19686
DIRECTV 14              
1 40333U 14078B   20122.53200084 -.00000130  00000-0  00000+0 0  9996
2 40333   0.0142 139.0036 0000692 246.0044 287.1839  1.00271625 19801
YAMAL 401               
1 40345U 14082A   20122.14354963 -.00000234  00000-0  00000+0 0  9992
2 40345   0.0154 234.6660 0000507 195.3625 291.1457  1.00276164 19970
ASTRA 2G                
1 40364U 14089A   20122.25546646  .00000145  00000-0  00000+0 0  9993
2 40364   0.0419  65.6525 0004758 345.6071 288.5702  1.00273413 19577
FENGYUN 2G              
1 40367U 14090A   20121.96646845 -.00000303  00000-0  00000-0 0  9995
2 40367   1.9710  95.2155 0003224 346.1945 225.3491  1.00267022 19590
MUOS-3                  
1 40374U 15002A   20121.60058656 -.00000134  00000-0  00000-0 0  9997
2 40374   2.8702 345.9671 0052629 176.7803 256.9746  1.00272808 19377
INMARSAT 5-F2           
1 40384U 15005A   20122.02809941 -.00000289  00000-0  00000+0 0  9999
2 40384   0.0161 263.6432 0000038 142.5925 128.2975  1.00271494 19231
ABS-3A                  
1 40424U 15010A   20121.60311640 -.00000029  00000-0  00000-0 0  9990
2 40424   0.0123 271.5576 0001998  60.0052 101.5962  1.00272926 18951
EUTELSAT 115 WEST B     
1 40425U 15010B   20122.52184289 -.00000030  00000-0  00000+0 0  9991
2 40425   0.0143 109.3242 0000519  15.8710 167.6731  1.00271161 18990
EXPRESS-AM7             
1 40505U 15012A   20122.47318281  .00000146  00000-0  10027+1 0  9995
2 40505   0.0016 188.7497 0002923 192.3218  49.1274  1.00272705 18920
IRNSS-1D                
1 40547U 15018A   20122.69864716 -.00000306  00000-0  00000+0 0  9998
2 40547  28.9677 278.0526 0021648 178.5775 126.9889  1.00272190 18804
BEIDOU 17               
1 40549U 15019A   20122.31623550 -.00000146  00000-0  00000+0 0  9991
2 40549  53.1245 321.7389 0037449 186.8939 278.2112  1.00298027 18649
THOR 7                  
1 40613U 15022A   20122.32150404 -.00000012  00000-0  00000+0 0  9993
2 40613   0.0244 142.9221 0002577 252.9615 298.9307  1.00273397 18377
TURKMENALEM52E/MONACOSAT
1 40617U 15023A   20122.04479175  .00000100  00000-0  00000+0 0  9993
2 40617   0.0058 293.1048 0002050 117.0102 237.4541  1.00271794 18386
DIRECTV 15              
1 40663U 15026A   20122.08570538 -.00000107  00000-0  00000+0 0  9994
2 40663   0.0258 113.1491 0000411 259.4196 134.9188  1.00272146 18093
SKY MEXICO-1            
1 40664U 15026B   20121.80341005 -.00000238  00000-0  00000+0 0  9994
2 40664   0.0185 266.4287 0002434 139.8461  23.3725  1.00271715 18090
METEOSAT-11 (MSG-4)     
1 40732U 15034A   20122.32159128 -.00000008  00000-0  00000+0 0  9995
2 40732   0.4690 214.5902 0000985 256.5780 224.1239  1.00275948 17596
STAR ONE C4             
1 40733U 15034B   20121.83452087 -.00000269  00000-0  00000+0 0  9990
2 40733   0.0412  67.2291 0002602 313.6809  68.7422  1.00272963 17572
WGS F7 (USA 263)        
1 40746U 15036A   20121.88868947  .00000014  00000-0  00000-0 0  9995
2 40746   0.0162 274.1178 0000175 211.6669 228.4165  1.00272019 17431
INTELSAT 34 (IS-34)     
1 40874U 15039A   20122.41239715 -.00000290  00000-0  00000+0 0  9991
2 40874   0.0142 257.0708 0000458  30.4215  25.2683  1.00269164 17231
EUTELSAT 8 WEST B       
1 40875U 15039B   20121.60215681 -.00000068  00000-0  00000-0 0  9992
2 40875   0.0741  32.6954 0004436  34.4405   0.6412  1.00272366 17226
GSAT-6                  
1 40880U 15041A   20122.00204334 -.00000163  00000-0  00000+0 0  9994
2 40880   0.0834 113.6396 0003541 182.9307   5.8765  1.00275565 17188
INMARSAT 5-F3           
1 40882U 15042A   20121.88868947  .00000046  00000-0  00000+0 0  9997
2 40882   0.0128 247.4247 0000164 323.9111 147.4682  1.00270047 17119
MUOS-4                  
1 40887U 15044A   20122.12121041 -.00000100  00000-0  00000+0 0  9991
2 40887   3.0125 342.5968 0057572   2.6218 352.9513  1.00271990 17120
TJS-1                   
1 40892U 15046A   20122.26398400 -.00000160  00000-0  10000-3 0  9990
2 40892   0.0563  86.7283 0004292 291.7117  91.2814  1.00272060 17111
EXPRESS-AM8             
1 40895U 15048A   20122.24146565 -.00000116  00000-0  00000+0 0  9992
2 40895   0.0185 295.1387 0000270 193.4865 163.9395  1.00271930 16930
BEIDOU 20               
1 40938U 15053A   20122.41255385 -.00000130  00000-0  00000+0 0  9992
2 40938  52.6904 284.7616 0048901 185.2911 354.4048  1.00283043 16922
SKY MUSTER (NBN1A)      
1 40940U 15054A   20121.84702800 -.00000282  00000-0  00000+0 0  9999
2 40940   0.0122 269.6969 0001634 124.9791 269.7413  1.00271334 16817
ARSAT 2                 
1 40941U 15054B   20122.37722330 -.00000229  00000-0  00000+0 0  9990
2 40941   0.0328 124.1622 0001630 279.9352 230.4475  1.00269384 16889
MORELOS 3               
1 40946U 15056A   20121.58736625 -.00000051  00000-0  00000+0 0  9994
2 40946   4.8959 328.5309 0000727 351.9891 356.8011  1.00272631 16836
APSTAR 9                
1 40982U 15059A   20121.84746418 -.00000269  00000-0  00000-0 0  9999
2 40982   0.0280  85.3708 0001725   7.7040 213.2844  1.00271737 16705
TURKSAT 4B              
1 40984U 15060A   20122.40188267  .00000109  00000-0  00000+0 0  9999
2 40984   0.0033  76.0818 0002136 314.7175  23.6948  1.00274749 16679
CHINASAT 2C (ZX 2C)     
1 41021U 15063A   20122.13799531 -.00000328  00000-0  00000+0 0  9991
2 41021   0.0556  72.5831 0001801  12.7262 287.3329  1.00273344 16579
GSAT-15                 
1 41028U 15065A   20122.49354868 -.00000263  00000-0  00000+0 0  9997
2 41028   0.1092  95.9508 0003319 322.2933  72.8234  1.00272077 16420
BADR-7 (ARABSAT-6B)     
1 41029U 15065B   20122.20155663  .00000140  00000-0  00000+0 0  9992
2 41029   0.0515 264.5343 0002540 341.3624  72.2880  1.00268467 16468
LAOSAT 1                
1 41034U 15067A   20121.84475986 -.00000347  00000-0  00000-0 0  9993
2 41034   0.0421  76.7766 0002483 288.6351 286.4610  1.00272910 16422
TELSTAR 12V             
1 41036U 15068A   20121.60076104 -.00000122  00000-0  00000-0 0  9990
2 41036   0.0128 242.4254 0002193 147.9637  29.9039  1.00271413 16178
CHINASAT 1C (ZX 1C)     
1 41103U 15073A   20121.97202020 -.00000153  00000-0  00000-0 0  9993
2 41103   1.5046  92.8086 0002561 290.1225 267.8249  1.00270716 16228
ELEKTRO-L 2             
1 41105U 15074A   20122.12138487 -.00000100  00000-0  00000+0 0  9990
2 41105   1.0870  97.8542 0002642 329.8303 271.5187  1.00271230 16077
COSMOS 2513             
1 41121U 15075A   20122.12217000 -.00000142  00000-0  00000+0 0  9994
2 41121   0.0525  96.8267 0004069 323.3069 283.6002  1.00269676 16157
EXPRESS-AMU1            
1 41191U 15082A   20122.44632672  .00000151  00000-0  00000+0 0  9999
2 41191   0.0158 267.6272 0002506 120.3755  28.6307  1.00273576 16071
GAOFEN 4                
1 41194U 15083A   20122.58726586 -.00000340  00000-0  00000+0 0  9997
2 41194   0.0774  89.5340 0005100  75.6267  11.9606  1.00270658 16051
BELINTERSAT-1           
1 41238U 16001A   20122.43521517  .00000102  00000-0  00000+0 0  9993
2 41238   0.0235 220.7028 0001749 255.5390 311.7311  1.00271721 15814
IRNSS-1E                
1 41241U 16003A   20121.84144490 -.00000273  00000-0  00000-0 0  9995
2 41241  29.1145  97.0178 0019551 188.0761 348.7395  1.00277826 15637
EUTELSAT 9B             
1 41310U 16005A   20122.31507737  .00000057  00000-0  00000+0 0  9992
2 41310   0.1049  84.0629 0003830 243.1654  14.8950  1.00272120 15663
SES-9                   
1 41380U 16013A   20121.84065977 -.00000349  00000-0  00000-0 0  9996
2 41380   0.0200 270.9680 0002020 148.1327 211.0692  1.00271113 14992
EUTELSAT 65 WEST A      
1 41382U 16014A   20122.16500281 -.00000281  00000-0  00000+0 0  9991
2 41382   0.0539   8.9906 0001860  22.7391 182.0145  1.00273694 15209
IRNSS-1F                
1 41384U 16015A   20122.44077233  .00000155  00000-0  00000+0 0  9990
2 41384   2.2270 221.6161 0023875 186.2306   3.1634  1.00276951 15245
BEIDOU IGSO-6           
1 41434U 16021A   20122.05742791 -.00000149  00000-0  00000+0 0  9992
2 41434  56.9750  61.0179 0038022 212.3314  62.7985  1.00268826 15045
IRNSS-1G                
1 41469U 16027A   20121.67327671 -.00000339  00000-0  00000-0 0  9991
2 41469   2.2504 224.6129 0006496 212.7777 153.5509  1.00267424 14754
JCSAT-2B                
1 41471U 16028A   20122.11924372 -.00000170  00000-0  00000+0 0  9998
2 41471   0.0141 243.6803 0002064 150.0156  22.7481  1.00268080 14645
THAICOM 8               
1 41552U 16031A   20122.42410382 -.00000127  00000-0  00000+0 0  9999
2 41552   0.0492  57.5646 0004908 323.2521  70.2233  1.00271172 14346
